[{"OBJECT_NAME":"STARLINK-31230","OBJECT_ID":"2024-020Q","EPOCH":"2026-03-09T23:06:22.361184","MEAN_MOTION":15.30186228,"ECCENTRICITY":0.00011604,"INCLINATION":53.1616,"RA_OF_ASC_NODE":318.9995,"ARG_OF_PERICENTER":80.4084,"MEAN_ANOMALY":279.7048,"EPHEMERIS_TYPE":0,"CLASSIFICATION_TYPE":"U","NORAD_CAT_ID":58890,"ELEMENT_SET_NO":999,"REV_AT_EPOCH":11814,"BSTAR":0.00010599372,"MEAN_MOTION_DOT":2.78e-5,"MEAN_MOTION_DDOT":0},{"OBJECT_NAME":"FLOCK 4BE-27","OBJECT_ID":"2024-149AX","EPOCH":"2026-03-09T18:04:53.053248","MEAN_MOTION":15.32593322,"ECCENTRICITY":0.00027324,"INCLINATION":97.3862,"RA_OF_ASC_NODE":150.6783,"ARG_OF_PERICENTER":305.898,"MEAN_ANOMALY":54.2008,"EPHEMERIS_TYPE":0,"CLASSIFICATION_TYPE":"U","NORAD_CAT_ID":60513,"ELEMENT_SET_NO":999,"REV_AT_EPOCH":8690,"BSTAR":0.00036576028,"MEAN_MOTION_DOT":0.00011439,"MEAN_MOTION_DDOT":0}]
